{"fetched_at":"2026-07-12T05:53:00.955Z","source":"https://celestrak.org/NORAD/elements/gp.php?NAME=JILIN&FORMAT=JSON","constellation":"jilin-1-gaofen","records":[{"OBJECT_NAME":"JILIN-1 GAOFEN 3A","OBJECT_ID":"2019-032C","EPOCH":"2026-07-11T12:32:55.156704","CLASSIFICATION_TYPE":"U","MEAN_MOTION":15.33144732,"ECCENTRICITY":0.00046975,"INCLINATION":44.9735,"RA_OF_ASC_NODE":222.9497,"ARG_OF_PERICENTER":77.2838,"MEAN_ANOMALY":282.8572,"EPHEMERIS_TYPE":0,"NORAD_CAT_ID":44312,"ELEMENT_SET_NO":999,"REV_AT_EPOCH":39157,"BSTAR":0.00017704125,"MEAN_MOTION_DOT":0.00005471,"MEAN_MOTION_DDOT":0},{"OBJECT_NAME":"JILIN-1 GAOFEN 2A","OBJECT_ID":"2019-075A","EPOCH":"2026-07-11T19:58:27.056640","CLASSIFICATION_TYPE":"U","MEAN_MOTION":15.39955865,"ECCENTRICITY":0.0005514,"INCLINATION":97.4966,"RA_OF_ASC_NODE":277.2081,"ARG_OF_PERICENTER":7.7992,"MEAN_ANOMALY":352.3339,"EPHEMERIS_TYPE":0,"NORAD_CAT_ID":44777,"ELEMENT_SET_NO":999,"REV_AT_EPOCH":36867,"BSTAR":0.00020724,"MEAN_MOTION_DOT":0.00008173,"MEAN_MOTION_DDOT":0},{"OBJECT_NAME":"JILIN-1 GAOFEN 2B","OBJECT_ID":"2019-086A","EPOCH":"2026-07-11T19:41:15.781920","CLASSIFICATION_TYPE":"U","MEAN_MOTION":15.20975981,"ECCENTRICITY":0.0012947,"INCLINATION":97.4878,"RA_OF_ASC_NODE":264.6594,"ARG_OF_PERICENTER":228.3717,"MEAN_ANOMALY":131.6411,"EPHEMERIS_TYPE":0,"NORAD_CAT_ID":44836,"ELEMENT_SET_NO":999,"REV_AT_EPOCH":36423,"BSTAR":0.00016924,"MEAN_MOTION_DOT":0.00003687,"MEAN_MOTION_DDOT":0},{"OBJECT_NAME":"JILIN-1 GAOFEN 3E","OBJECT_ID":"2020-065D","EPOCH":"2026-07-11T20:03:21.219264","CLASSIFICATION_TYPE":"U","MEAN_MOTION":15.66876715,"ECCENTRICITY":0.0010704,"INCLINATION":97.2223,"RA_OF_ASC_NODE":246.0662,"ARG_OF_PERICENTER":82.975,"MEAN_ANOMALY":277.2728,"EPHEMERIS_TYPE":0,"NORAD_CAT_ID":46457,"ELEMENT_SET_NO":999,"REV_AT_EPOCH":32361,"BSTAR":0.00044265,"MEAN_MOTION_DOT":0.00046974,"MEAN_MOTION_DDOT":0},{"OBJECT_NAME":"JILIN-1 GAOFEN 3F","OBJECT_ID":"2020-065E","EPOCH":"2026-07-11T20:14:18.636000","CLASSIFICATION_TYPE":"U","MEAN_MOTION":15.63651317,"ECCENTRICITY":0.0012126,"INCLINATION":97.2179,"RA_OF_ASC_NODE":243.2836,"ARG_OF_PERICENTER":69.2674,"MEAN_ANOMALY":290.9884,"EPHEMERIS_TYPE":0,"NORAD_CAT_ID":46458,"ELEMENT_SET_NO":999,"REV_AT_EPOCH":32355,"BSTAR":0.00042266,"MEAN_MOTION_DOT":0.00039448,"MEAN_MOTION_DDOT":0},{"OBJECT_NAME":"JILIN-1 GAOFEN 3G","OBJECT_ID":"2020-065F","EPOCH":"2026-07-11T19:41:03.890688","CLASSIFICATION_TYPE":"U","MEAN_MOTION":15.76317711,"ECCENTRICITY":0.0004961,"INCLINATION":97.2235,"RA_OF_ASC_NODE":250.5139,"ARG_OF_PERICENTER":292.9314,"MEAN_ANOMALY":67.1428,"EPHEMERIS_TYPE":0,"NORAD_CAT_ID":46459,"ELEMENT_SET_NO":999,"REV_AT_EPOCH":32381,"BSTAR":0.00054708,"MEAN_MOTION_DOT":0.00086495,"MEAN_MOTION_DDOT":0},{"OBJECT_NAME":"JILIN-1 GAOFEN 3H","OBJECT_ID":"2020-065G","EPOCH":"2026-07-11T20:29:31.674048","CLASSIFICATION_TYPE":"U","MEAN_MOTION":15.71804362,"ECCENTRICITY":0.0005938,"INCLINATION":97.2182,"RA_OF_ASC_NODE":246.7097,"ARG_OF_PERICENTER":213.8126,"MEAN_ANOMALY":146.276,"EPHEMERIS_TYPE":0,"NORAD_CAT_ID":46460,"ELEMENT_SET_NO":999,"REV_AT_EPOCH":32375,"BSTAR":0.00050298,"MEAN_MOTION_DOT":0.00065383,"MEAN_MOTION_DDOT":0},{"OBJECT_NAME":"JILIN-1 GAOFEN 2D","OBJECT_ID":"2021-086A","EPOCH":"2026-07-11T20:46:04.179360","CLASSIFICATION_TYPE":"U","MEAN_MOTION":15.10850889,"ECCENTRICITY":0.0034284,"INCLINATION":97.6501,"RA_OF_ASC_NODE":315.5725,"ARG_OF_PERICENTER":61.7262,"MEAN_ANOMALY":298.742,"EPHEMERIS_TYPE":0,"NORAD_CAT_ID":49256,"ELEMENT_SET_NO":999,"REV_AT_EPOCH":26444,"BSTAR":0.00014572,"MEAN_MOTION_DOT":0.00002389,"MEAN_MOTION_DDOT":0},{"OBJECT_NAME":"JILIN-1 GAOFEN 2F","OBJECT_ID":"2021-097A","EPOCH":"2026-07-11T20:30:22.899744","CLASSIFICATION_TYPE":"U","MEAN_MOTION":15.07931636,"ECCENTRICITY":0.0019656,"INCLINATION":97.672,"RA_OF_ASC_NODE":318.9988,"ARG_OF_PERICENTER":140.402,"MEAN_ANOMALY":219.8647,"EPHEMERIS_TYPE":0,"NORAD_CAT_ID":49338,"ELEMENT_SET_NO":999,"REV_AT_EPOCH":26003,"BSTAR":0.00012776,"MEAN_MOTION_DOT":0.00001905,"MEAN_MOTION_DDOT":0},{"OBJECT_NAME":"JILIN-1 GAOFEN 3D27","OBJECT_ID":"2022-048B","EPOCH":"2026-07-11T19:32:59.966880","CLASSIFICATION_TYPE":"U","MEAN_MOTION":15.82176925,"ECCENTRICITY":0.0004957,"INCLINATION":97.5729,"RA_OF_ASC_NODE":309.1096,"ARG_OF_PERICENTER":253.2711,"MEAN_ANOMALY":106.8013,"EPHEMERIS_TYPE":0,"NORAD_CAT_ID":52444,"ELEMENT_SET_NO":999,"REV_AT_EPOCH":23336,"BSTAR":0.00061275,"MEAN_MOTION_DOT":0.00126722,"MEAN_MOTION_DDOT":0},{"OBJECT_NAME":"JILIN-1 GAOFEN 3D28","OBJECT_ID":"2022-048C","EPOCH":"2026-07-11T19:38:46.135392","CLASSIFICATION_TYPE":"U","MEAN_MOTION":15.86903056,"ECCENTRICITY":0.0004726,"INCLINATION":97.567,"RA_OF_ASC_NODE":309.3917,"ARG_OF_PERICENTER":249.3484,"MEAN_ANOMALY":110.728,"EPHEMERIS_TYPE":0,"NORAD_CAT_ID":52445,"ELEMENT_SET_NO":999,"REV_AT_EPOCH":23342,"BSTAR":0.00065348,"MEAN_MOTION_DOT":0.00169933,"MEAN_MOTION_DDOT":0},{"OBJECT_NAME":"JILIN-1 GAOFEN 3D29","OBJECT_ID":"2022-048D","EPOCH":"2026-07-11T20:42:59.112288","CLASSIFICATION_TYPE":"U","MEAN_MOTION":15.82384862,"ECCENTRICITY":0.0004116,"INCLINATION":97.572,"RA_OF_ASC_NODE":309.5277,"ARG_OF_PERICENTER":233.6845,"MEAN_ANOMALY":126.4044,"EPHEMERIS_TYPE":0,"NORAD_CAT_ID":52446,"ELEMENT_SET_NO":999,"REV_AT_EPOCH":23339,"BSTAR":0.00061224,"MEAN_MOTION_DOT":0.00127827,"MEAN_MOTION_DDOT":0},{"OBJECT_NAME":"JILIN-1 GAOFEN 3D31","OBJECT_ID":"2022-048F","EPOCH":"2026-07-11T20:24:28.701216","CLASSIFICATION_TYPE":"U","MEAN_MOTION":15.92266305,"ECCENTRICITY":0.0005132,"INCLINATION":97.5684,"RA_OF_ASC_NODE":310.8084,"ARG_OF_PERICENTER":242.6218,"MEAN_ANOMALY":117.4534,"EPHEMERIS_TYPE":0,"NORAD_CAT_ID":52448,"ELEMENT_SET_NO":999,"REV_AT_EPOCH":23349,"BSTAR":0.00069592,"MEAN_MOTION_DOT":0.00231824,"MEAN_MOTION_DDOT":0.000022275},{"OBJECT_NAME":"JILIN-1 GAOFEN 03D09","OBJECT_ID":"2022-098B","EPOCH":"2026-07-11T20:13:00.044832","CLASSIFICATION_TYPE":"U","MEAN_MOTION":15.69865297,"ECCENTRICITY":0.0003186,"INCLINATION":97.5617,"RA_OF_ASC_NODE":324.4265,"ARG_OF_PERICENTER":244.2737,"MEAN_ANOMALY":115.8196,"EPHEMERIS_TYPE":0,"NORAD_CAT_ID":53445,"ELEMENT_SET_NO":999,"REV_AT_EPOCH":21849,"BSTAR":0.00048385,"MEAN_MOTION_DOT":0.00057922,"MEAN_MOTION_DDOT":0},{"OBJECT_NAME":"JILIN-1 GAOFEN 03D43","OBJECT_ID":"2022-098E","EPOCH":"2026-07-11T21:21:23.061600","CLASSIFICATION_TYPE":"U","MEAN_MOTION":15.73539031,"ECCENTRICITY":0.0003421,"INCLINATION":97.5598,"RA_OF_ASC_NODE":325.6196,"ARG_OF_PERICENTER":238.1591,"MEAN_ANOMALY":121.9339,"EPHEMERIS_TYPE":0,"NORAD_CAT_ID":53448,"ELEMENT_SET_NO":999,"REV_AT_EPOCH":21857,"BSTAR":0.00048272,"MEAN_MOTION_DOT":0.00067497,"MEAN_MOTION_DDOT":0},{"OBJECT_NAME":"JILIN-1 GAOFEN 03D08","OBJECT_ID":"2022-155A","EPOCH":"2026-07-11T19:57:21.918816","CLASSIFICATION_TYPE":"U","MEAN_MOTION":15.67247202,"ECCENTRICITY":0.0004084,"INCLINATION":97.6223,"RA_OF_ASC_NODE":340.2536,"ARG_OF_PERICENTER":239.6175,"MEAN_ANOMALY":120.4682,"EPHEMERIS_TYPE":0,"NORAD_CAT_ID":54251,"ELEMENT_SET_NO":999,"REV_AT_EPOCH":20367,"BSTAR":0.00041038,"MEAN_MOTION_DOT":0.00044062,"MEAN_MOTION_DDOT":0},{"OBJECT_NAME":"JILIN-1 GAOFEN 03D51","OBJECT_ID":"2022-155B","EPOCH":"2026-07-11T20:50:23.635968","CLASSIFICATION_TYPE":"U","MEAN_MOTION":15.64605502,"ECCENTRICITY":0.0004205,"INCLINATION":97.6243,"RA_OF_ASC_NODE":339.6214,"ARG_OF_PERICENTER":244.433,"MEAN_ANOMALY":115.6494,"EPHEMERIS_TYPE":0,"NORAD_CAT_ID":54252,"ELEMENT_SET_NO":999,"REV_AT_EPOCH":20360,"BSTAR":0.0003764,"MEAN_MOTION_DOT":0.00036324,"MEAN_MOTION_DDOT":0},{"OBJECT_NAME":"JILIN-1 GAOFEN 03D53","OBJECT_ID":"2022-155C","EPOCH":"2026-07-11T19:47:19.961376","CLASSIFICATION_TYPE":"U","MEAN_MOTION":15.54270466,"ECCENTRICITY":0.0004776,"INCLINATION":97.6237,"RA_OF_ASC_NODE":334.8322,"ARG_OF_PERICENTER":265.6948,"MEAN_ANOMALY":94.3759,"EPHEMERIS_TYPE":0,"NORAD_CAT_ID":54253,"ELEMENT_SET_NO":999,"REV_AT_EPOCH":20331,"BSTAR":0.00032397,"MEAN_MOTION_DOT":0.00021079,"MEAN_MOTION_DDOT":0},{"OBJECT_NAME":"JILIN-1 GAOFEN 03D52","OBJECT_ID":"2022-155E","EPOCH":"2026-07-11T20:24:55.371168","CLASSIFICATION_TYPE":"U","MEAN_MOTION":15.61813942,"ECCENTRICITY":0.0003554,"INCLINATION":97.6218,"RA_OF_ASC_NODE":337.8296,"ARG_OF_PERICENTER":260.7566,"MEAN_ANOMALY":99.3289,"EPHEMERIS_TYPE":0,"NORAD_CAT_ID":54255,"ELEMENT_SET_NO":999,"REV_AT_EPOCH":20355,"BSTAR":0.00034919,"MEAN_MOTION_DOT":0.00030184,"MEAN_MOTION_DDOT":0},{"OBJECT_NAME":"JILIN-1 GAOFEN 03D50","OBJECT_ID":"2022-167J","EPOCH":"2026-07-11T20:07:51.043008","CLASSIFICATION_TYPE":"U","MEAN_MOTION":15.35016689,"ECCENTRICITY":0.00055,"INCLINATION":97.6845,"RA_OF_ASC_NODE":1.7005,"ARG_OF_PERICENTER":32.4249,"MEAN_ANOMALY":327.7331,"EPHEMERIS_TYPE":0,"NORAD_CAT_ID":54690,"ELEMENT_SET_NO":999,"REV_AT_EPOCH":19913,"BSTAR":0.00019959,"MEAN_MOTION_DOT":0.00006697,"MEAN_MOTION_DDOT":0},{"OBJECT_NAME":"JILIN-1 GAOFEN 03D47","OBJECT_ID":"2022-167L","EPOCH":"2026-07-11T20:11:12.310944","CLASSIFICATION_TYPE":"U","MEAN_MOTION":15.34300913,"ECCENTRICITY":0.0008071,"INCLINATION":97.6941,"RA_OF_ASC_NODE":3.4404,"ARG_OF_PERICENTER":40.2043,"MEAN_ANOMALY":319.9795,"EPHEMERIS_TYPE":0,"NORAD_CAT_ID":54692,"ELEMENT_SET_NO":999,"REV_AT_EPOCH":19912,"BSTAR":0.00019542,"MEAN_MOTION_DOT":0.0000641,"MEAN_MOTION_DDOT":0},{"OBJECT_NAME":"JILIN-1 GAOFEN 03D49","OBJECT_ID":"2022-167N","EPOCH":"2026-07-11T20:45:18.271584","CLASSIFICATION_TYPE":"U","MEAN_MOTION":15.37990534,"ECCENTRICITY":0.0006244,"INCLINATION":97.6818,"RA_OF_ASC_NODE":4.108,"ARG_OF_PERICENTER":59.3918,"MEAN_ANOMALY":300.7941,"EPHEMERIS_TYPE":0,"NORAD_CAT_ID":54694,"ELEMENT_SET_NO":999,"REV_AT_EPOCH":19928,"BSTAR":0.00020714,"MEAN_MOTION_DOT":0.00007656,"MEAN_MOTION_DDOT":0},{"OBJECT_NAME":"JILIN-1 GAOFEN 03D48","OBJECT_ID":"2022-167P","EPOCH":"2026-07-11T19:59:24.446976","CLASSIFICATION_TYPE":"U","MEAN_MOTION":15.35746629,"ECCENTRICITY":0.0006748,"INCLINATION":97.689,"RA_OF_ASC_NODE":3.4094,"ARG_OF_PERICENTER":41.1418,"MEAN_ANOMALY":319.0332,"EPHEMERIS_TYPE":0,"NORAD_CAT_ID":54695,"ELEMENT_SET_NO":999,"REV_AT_EPOCH":19917,"BSTAR":0.00019977,"MEAN_MOTION_DOT":0.00006863,"MEAN_MOTION_DDOT":0}]}
